{"epoch":1784710044,"count":18256,"objects":[{"id":"49097","name":"ONEWEB-0311","type":"PAYLOAD","l1":"1 49097U 21075Y   26202.41893164  .00000096  00000-0  21314-3 0  9991","l2":"2 49097  87.9153 359.0535 0001575  81.6131 278.5179 13.17648181238138"},{"id":"49098","name":"ONEWEB-0312","type":"PAYLOAD","l1":"1 49098U 21075Z   26202.66193164  .00000092  00000-0  20504-3 0  9998","l2":"2 49098  87.9154 359.0152 0001947  85.2054 274.9300 13.17648715238142"},{"id":"49099","name":"ONEWEB-0313","type":"PAYLOAD","l1":"1 49099U 21075AA  26202.66684398  .00000076  00000-0  16276-3 0  9996","l2":"2 49099  87.9151 359.0191 0001795  90.8560 269.2777 13.17648462238131"},{"id":"49100","name":"ONEWEB-0314","type":"PAYLOAD","l1":"1 49100U 21075AB  26202.40542081 -.00000005  00000-0 -45929-4 0  9995","l2":"2 49100  87.9162 359.0479 0001978  82.2401 277.8955 13.17647360238079"},{"id":"49101","name":"ONEWEB-0315","type":"PAYLOAD","l1":"1 49101U 21075AC  26202.66770774 -.00000001  00000-0 -37124-4 0  9990","l2":"2 49101  87.8979 343.7910 0001521  89.9598 270.1704 13.12443952239693"},{"id":"49102","name":"ONEWEB-0316","type":"PAYLOAD","l1":"1 49102U 21075AD  26202.30337460  .00000139  00000-0  32029-3 0  9991","l2":"2 49102  87.9198 328.6726 0001976  99.1384 260.9971 13.18686991241701"},{"id":"49103","name":"ONEWEB-0317","type":"PAYLOAD","l1":"1 49103U 21075AE  26202.36615016  .00000117  00000-0  28997-3 0  9999","l2":"2 49103  87.8974 343.8740 0002548 103.5772 256.5641 13.12444203239675"},{"id":"49104","name":"ONEWEB-0318","type":"PAYLOAD","l1":"1 49104U 21075AF  26202.60336941  .00000133  00000-0  30394-3 0  9996","l2":"2 49104  87.9202 328.6153 0001786  94.9389 265.1947 13.18687517241705"},{"id":"49105","name":"ONEWEB-0319","type":"PAYLOAD","l1":"1 49105U 21075AG  26202.42061853  .00000111  00000-0  25205-3 0  9995","l2":"2 49105  87.9152 359.0582 0001380  85.1519 274.9770 13.17647925238112"},{"id":"49106","name":"ONEWEB-0323","type":"PAYLOAD","l1":"1 49106U 21075AH  26202.65245646 -.00000344  00000-0 -99135-3 0  9998","l2":"2 49106  87.8979 343.7991 0001494  82.2473 277.8825 13.12443319239071"},{"id":"49107","name":"ONEWEB-0329","type":"PAYLOAD","l1":"1 49107U 21075AJ  26202.35311032  .00000076  00000-0  16311-3 0  9994","l2":"2 49107  87.9156 359.0723 0001883  88.3290 271.8057 13.17648658238088"},{"id":"49108","name":"ONEWEB-0330","type":"PAYLOAD","l1":"1 49108U 21075AK  26202.35662362  .00000098  00000-0  21840-3 0  9997","l2":"2 49108  87.9155 359.0832 0001953  88.9530 271.1825 13.17647272238122"},{"id":"49186","name":"ONEWEB-0292","type":"PAYLOAD","l1":"1 49186U 21083A   26202.59782985  .00000246  00000-0  63941-3 0  9995","l2":"2 49186  87.8979 313.3906 0001815  99.0977 261.0357 13.13470306235449"},{"id":"49187","name":"ONEWEB-0303","type":"PAYLOAD","l1":"1 49187U 21083B   26202.37236873  .00000119  00000-0  26802-3 0  9996","l2":"2 49187  87.9199 328.6594 0001751  95.7621 264.3711 13.18684639234489"},{"id":"49188","name":"ONEWEB-0306","type":"PAYLOAD","l1":"1 49188U 21083C   26202.58988782  .00000039  00000-0  66445-4 0  9992","l2":"2 49188  87.9204 328.6056 0002165 100.0281 260.1095 13.18685204234558"},{"id":"49189","name":"ONEWEB-0307","type":"PAYLOAD","l1":"1 49189U 21083D   26202.36337016  .00000249  00000-0  64630-3 0  9993","l2":"2 49189  87.8980 313.4352 0001885  96.5851 263.5493 13.13469673235410"}]}