{"fetched_at":"2026-07-22T07:09:22.096Z","source":"https://celestrak.org/NORAD/elements/gp.php?GROUP=oneweb&FORMAT=JSON","constellation":"oneweb","records":[{"OBJECT_NAME":"ONEWEB-0311","OBJECT_ID":"2021-075Y","EPOCH":"2026-07-21T10:03:15.693696","CLASSIFICATION_TYPE":"U","MEAN_MOTION":13.17648181,"ECCENTRICITY":0.00015751,"INCLINATION":87.9153,"RA_OF_ASC_NODE":359.0535,"ARG_OF_PERICENTER":81.6131,"MEAN_ANOMALY":278.5179,"EPHEMERIS_TYPE":0,"NORAD_CAT_ID":49097,"ELEMENT_SET_NO":999,"REV_AT_EPOCH":23813,"BSTAR":0.00021314066,"MEAN_MOTION_DOT":9.6e-7,"MEAN_MOTION_DDOT":0},{"OBJECT_NAME":"ONEWEB-0312","OBJECT_ID":"2021-075Z","EPOCH":"2026-07-21T15:53:10.893696","CLASSIFICATION_TYPE":"U","MEAN_MOTION":13.17648715,"ECCENTRICITY":0.00019472,"INCLINATION":87.9154,"RA_OF_ASC_NODE":359.0152,"ARG_OF_PERICENTER":85.2054,"MEAN_ANOMALY":274.93,"EPHEMERIS_TYPE":0,"NORAD_CAT_ID":49098,"ELEMENT_SET_NO":999,"REV_AT_EPOCH":23814,"BSTAR":0.00020504413,"MEAN_MOTION_DOT":9.2e-7,"MEAN_MOTION_DDOT":0},{"OBJECT_NAME":"ONEWEB-0313","OBJECT_ID":"2021-075AA","EPOCH":"2026-07-21T16:00:15.319872","CLASSIFICATION_TYPE":"U","MEAN_MOTION":13.17648462,"ECCENTRICITY":0.00017954,"INCLINATION":87.9151,"RA_OF_ASC_NODE":359.0191,"ARG_OF_PERICENTER":90.856,"MEAN_ANOMALY":269.2777,"EPHEMERIS_TYPE":0,"NORAD_CAT_ID":49099,"ELEMENT_SET_NO":999,"REV_AT_EPOCH":23813,"BSTAR":0.00016276366,"MEAN_MOTION_DOT":7.6e-7,"MEAN_MOTION_DDOT":0},{"OBJECT_NAME":"ONEWEB-0314","OBJECT_ID":"2021-075AB","EPOCH":"2026-07-21T09:43:48.357984","CLASSIFICATION_TYPE":"U","MEAN_MOTION":13.1764736,"ECCENTRICITY":0.00019779,"INCLINATION":87.9162,"RA_OF_ASC_NODE":359.0479,"ARG_OF_PERICENTER":82.2401,"MEAN_ANOMALY":277.8955,"EPHEMERIS_TYPE":0,"NORAD_CAT_ID":49100,"ELEMENT_SET_NO":999,"REV_AT_EPOCH":23807,"BSTAR":-0.000045928764,"MEAN_MOTION_DOT":-5e-8,"MEAN_MOTION_DDOT":0},{"OBJECT_NAME":"ONEWEB-0315","OBJECT_ID":"2021-075AC","EPOCH":"2026-07-21T16:01:29.948736","CLASSIFICATION_TYPE":"U","MEAN_MOTION":13.12443952,"ECCENTRICITY":0.0001521,"INCLINATION":87.8979,"RA_OF_ASC_NODE":343.791,"ARG_OF_PERICENTER":89.9598,"MEAN_ANOMALY":270.1704,"EPHEMERIS_TYPE":0,"NORAD_CAT_ID":49101,"ELEMENT_SET_NO":999,"REV_AT_EPOCH":23969,"BSTAR":-0.000037123713,"MEAN_MOTION_DOT":-1e-8,"MEAN_MOTION_DDOT":0},{"OBJECT_NAME":"ONEWEB-0316","OBJECT_ID":"2021-075AD","EPOCH":"2026-07-21T07:16:51.565440","CLASSIFICATION_TYPE":"U","MEAN_MOTION":13.18686991,"ECCENTRICITY":0.00019761,"INCLINATION":87.9198,"RA_OF_ASC_NODE":328.6726,"ARG_OF_PERICENTER":99.1384,"MEAN_ANOMALY":260.9971,"EPHEMERIS_TYPE":0,"NORAD_CAT_ID":49102,"ELEMENT_SET_NO":999,"REV_AT_EPOCH":24170,"BSTAR":0.00032029027,"MEAN_MOTION_DOT":0.00000139,"MEAN_MOTION_DDOT":0},{"OBJECT_NAME":"ONEWEB-0317","OBJECT_ID":"2021-075AE","EPOCH":"2026-07-21T08:47:15.373824","CLASSIFICATION_TYPE":"U","MEAN_MOTION":13.12444203,"ECCENTRICITY":0.00025476,"INCLINATION":87.8974,"RA_OF_ASC_NODE":343.874,"ARG_OF_PERICENTER":103.5772,"MEAN_ANOMALY":256.5641,"EPHEMERIS_TYPE":0,"NORAD_CAT_ID":49103,"ELEMENT_SET_NO":999,"REV_AT_EPOCH":23967,"BSTAR":0.00028996853,"MEAN_MOTION_DOT":0.00000117,"MEAN_MOTION_DDOT":0},{"OBJECT_NAME":"ONEWEB-0318","OBJECT_ID":"2021-075AF","EPOCH":"2026-07-21T14:28:51.117024","CLASSIFICATION_TYPE":"U","MEAN_MOTION":13.18687517,"ECCENTRICITY":0.00017856,"INCLINATION":87.9202,"RA_OF_ASC_NODE":328.6153,"ARG_OF_PERICENTER":94.9389,"MEAN_ANOMALY":265.1947,"EPHEMERIS_TYPE":0,"NORAD_CAT_ID":49104,"ELEMENT_SET_NO":999,"REV_AT_EPOCH":24170,"BSTAR":0.00030394341,"MEAN_MOTION_DOT":0.00000133,"MEAN_MOTION_DDOT":0},{"OBJECT_NAME":"ONEWEB-0319","OBJECT_ID":"2021-075AG","EPOCH":"2026-07-21T10:05:41.440992","CLASSIFICATION_TYPE":"U","MEAN_MOTION":13.17647925,"ECCENTRICITY":0.00013797,"INCLINATION":87.9152,"RA_OF_ASC_NODE":359.0582,"ARG_OF_PERICENTER":85.1519,"MEAN_ANOMALY":274.977,"EPHEMERIS_TYPE":0,"NORAD_CAT_ID":49105,"ELEMENT_SET_NO":999,"REV_AT_EPOCH":23811,"BSTAR":0.00025204862,"MEAN_MOTION_DOT":0.00000111,"MEAN_MOTION_DDOT":0},{"OBJECT_NAME":"ONEWEB-0323","OBJECT_ID":"2021-075AH","EPOCH":"2026-07-21T15:39:32.238144","CLASSIFICATION_TYPE":"U","MEAN_MOTION":13.12443319,"ECCENTRICITY":0.00014943,"INCLINATION":87.8979,"RA_OF_ASC_NODE":343.7991,"ARG_OF_PERICENTER":82.2473,"MEAN_ANOMALY":277.8825,"EPHEMERIS_TYPE":0,"NORAD_CAT_ID":49106,"ELEMENT_SET_NO":999,"REV_AT_EPOCH":23907,"BSTAR":-0.00099134525,"MEAN_MOTION_DOT":-0.00000344,"MEAN_MOTION_DDOT":0},{"OBJECT_NAME":"ONEWEB-0329","OBJECT_ID":"2021-075AJ","EPOCH":"2026-07-21T08:28:28.731648","CLASSIFICATION_TYPE":"U","MEAN_MOTION":13.17648658,"ECCENTRICITY":0.00018831,"INCLINATION":87.9156,"RA_OF_ASC_NODE":359.0723,"ARG_OF_PERICENTER":88.329,"MEAN_ANOMALY":271.8057,"EPHEMERIS_TYPE":0,"NORAD_CAT_ID":49107,"ELEMENT_SET_NO":999,"REV_AT_EPOCH":23808,"BSTAR":0.00016311136,"MEAN_MOTION_DOT":7.6e-7,"MEAN_MOTION_DDOT":0},{"OBJECT_NAME":"ONEWEB-0330","OBJECT_ID":"2021-075AK","EPOCH":"2026-07-21T08:33:32.280768","CLASSIFICATION_TYPE":"U","MEAN_MOTION":13.17647272,"ECCENTRICITY":0.00019534,"INCLINATION":87.9155,"RA_OF_ASC_NODE":359.0832,"ARG_OF_PERICENTER":88.953,"MEAN_ANOMALY":271.1825,"EPHEMERIS_TYPE":0,"NORAD_CAT_ID":49108,"ELEMENT_SET_NO":999,"REV_AT_EPOCH":23812,"BSTAR":0.00021839664,"MEAN_MOTION_DOT":9.8e-7,"MEAN_MOTION_DDOT":0},{"OBJECT_NAME":"ONEWEB-0292","OBJECT_ID":"2021-083A","EPOCH":"2026-07-21T14:20:52.499040","CLASSIFICATION_TYPE":"U","MEAN_MOTION":13.13470306,"ECCENTRICITY":0.00018147,"INCLINATION":87.8979,"RA_OF_ASC_NODE":313.3906,"ARG_OF_PERICENTER":99.0977,"MEAN_ANOMALY":261.0357,"EPHEMERIS_TYPE":0,"NORAD_CAT_ID":49186,"ELEMENT_SET_NO":999,"REV_AT_EPOCH":23544,"BSTAR":0.00063941249,"MEAN_MOTION_DOT":0.00000246,"MEAN_MOTION_DDOT":0},{"OBJECT_NAME":"ONEWEB-0303","OBJECT_ID":"2021-083B","EPOCH":"2026-07-21T08:56:12.658272","CLASSIFICATION_TYPE":"U","MEAN_MOTION":13.18684639,"ECCENTRICITY":0.00017506,"INCLINATION":87.9199,"RA_OF_ASC_NODE":328.6594,"ARG_OF_PERICENTER":95.7621,"MEAN_ANOMALY":264.3711,"EPHEMERIS_TYPE":0,"NORAD_CAT_ID":49187,"ELEMENT_SET_NO":999,"REV_AT_EPOCH":23448,"BSTAR":0.00026802387,"MEAN_MOTION_DOT":0.00000119,"MEAN_MOTION_DDOT":0},{"OBJECT_NAME":"ONEWEB-0306","OBJECT_ID":"2021-083C","EPOCH":"2026-07-21T14:09:26.307648","CLASSIFICATION_TYPE":"U","MEAN_MOTION":13.18685204,"ECCENTRICITY":0.00021651,"INCLINATION":87.9204,"RA_OF_ASC_NODE":328.6056,"ARG_OF_PERICENTER":100.0281,"MEAN_ANOMALY":260.1095,"EPHEMERIS_TYPE":0,"NORAD_CAT_ID":49188,"ELEMENT_SET_NO":999,"REV_AT_EPOCH":23455,"BSTAR":0.000066445171,"MEAN_MOTION_DOT":3.9e-7,"MEAN_MOTION_DDOT":0},{"OBJECT_NAME":"ONEWEB-0307","OBJECT_ID":"2021-083D","EPOCH":"2026-07-21T08:43:15.181824","CLASSIFICATION_TYPE":"U","MEAN_MOTION":13.13469673,"ECCENTRICITY":0.00018849,"INCLINATION":87.898,"RA_OF_ASC_NODE":313.4352,"ARG_OF_PERICENTER":96.5851,"MEAN_ANOMALY":263.5493,"EPHEMERIS_TYPE":0,"NORAD_CAT_ID":49189,"ELEMENT_SET_NO":999,"REV_AT_EPOCH":23541,"BSTAR":0.00064629622,"MEAN_MOTION_DOT":0.00000249,"MEAN_MOTION_DDOT":0}]}
